IRIDIUM 921             
1 24873U 97034E   24325.75485741  .00122099  00000+0  13286-2 0  9998
2 24873  86.3746 209.5127 0005838  57.7200 302.4631 15.63027007499407
IRIDIUM 26              
1 24903U 97043A   24325.63334882  .00000690  00000+0  22732-3 0  9997
2 24903  86.4005 198.1282 0002288  81.2777 278.8679 14.36802639427266
IRIDIUM 22              
1 24907U 97043E   24325.95091357  .00000603  00000+0  20251-3 0  9991
2 24907  86.4009 201.3523 0002049  83.0630 277.0800 14.35654043426889
DUMMY MASS 1            
1 24925U 97048A   24325.84898476  .00000869  00000+0  94763-4 0  9995
2 24925  86.3375 231.5642 0007641 146.7613 213.4093 14.86626494474417
DUMMY MASS 2            
1 24926U 97048B   24325.50729121  .00000855  00000+0  93773-4 0  9994
2 24926  86.3372 233.2915 0007902 159.5995 200.5546 14.86381006473902
IRIDIUM 29              
1 24944U 97051A   24325.48663306  .00000729  00000+0  24375-3 0  9998
2 24944  86.3986 231.3434 0002064  86.0553 274.0880 14.36113296423312
IRIDIUM 33              
1 24946U 97051C   24326.08369472  .00000543  00000+0  18496-3 0  9995
2 24946  86.3903 230.3406 0009548  47.0515 313.1480 14.34653569422916
IRIDIUM 28              
1 24948U 97051E   24325.80476657  .00000750  00000+0  24626-3 0  9992
2 24948  86.3994 228.8450 0002591  76.7606 283.3880 14.37062375423915
